0172P         2025 11  2.3908  3.358190  0.205037  208.8737   30.8813   11.2222  20251024  13.0  4.0  172P/Yeung                                               MPC185664
0173P         2021 12 18.2737  4.216223  0.262441   29.3273  100.3450   16.4940  20251024   7.5  4.0  173P/Mueller                                             MPEC 2023-N01
0175P         2026 09  2.9880  2.306426  0.375318   74.5739  109.8045    4.9297  20251024  14.0  4.0  175P/Hergenrother                                        MPC114608
0177P         2006 08 28.0912  1.124995  0.954090   60.7796  271.8560   31.0035  20251024  15.0  4.0  177P/Barnard                                             MPEC 2020-L06
0178P         2027 06 21.4875  1.881006  0.482200  297.9670  102.7837   11.0929  20251024  13.5  4.0  178P/Hug-Bell                                            MPEC 2024-R10
0179P         2022 05 31.7691  4.125200  0.305252  297.2414  115.5055   19.8893  20251024   2.5  8.0  179P/Jedicke                                             MPEC 2024-EF7
0180P         2023 07 12.2255  2.498527  0.353962   94.5940   84.5569   16.8614  20251024  11.0  4.0  180P/NEAT                                                MPEC 2024-F34
0181P         2022 01  8.0519  1.165321  0.699624  336.2870   35.4467   17.4706  20251024  11.5  4.0  181P/Shoemaker-Levy                                      MPC 89012
0182P         2027 06  5.3593  0.990601  0.664028   54.2227   72.4479   16.2302  20251024  18.0  4.0  182P/LONEOS                                              MPEC 2024-UQ8
0183P         2027 09 10.6028  4.228844  0.102984  162.1284    3.4188   18.7188  20251024  12.5  2.0  183P/Korlevic-Juric                                      MPEC 2024-VJ2
0184P         2028 03 23.9400  1.711957  0.549639  186.5563  173.2626    4.5692  20251024  13.5  4.0  184P/Lovas                                               MPEC 2020-W26
0185P         2023 07 12.7247  0.932205  0.699286  181.9237  214.1241   14.0071  20251024  15.0  4.0  185P/Petriew                                             MPEC 2024-F91
0186P         2029 08 21.7250  4.260436  0.123397  268.1404  325.7925   28.6853  20251024   7.5  4.0  186P/Garradd                                             MPEC 2022-X67
0187P         2028 02  5.2992  3.835506  0.156504  131.9016  109.8480   13.6691  20251024   9.0  4.0  187P/LINEAR                                              MPEC 2020-SI8
0188P         2026 04 13.3081  2.546094  0.416577   26.8452  358.9110   10.5255  20251024  11.5  4.0  188P/LINEAR-Mueller                                      MPC188418
0189P         2027 09 12.9747  1.200765  0.591380   16.1924  281.6868   20.1218  20251024  19.0  4.0  189P/NEAT                                                MPEC 2022-QD9
0190P         2024 12 24.1446  2.018348  0.523036   50.5514  335.4326    2.1760  20251024  13.0  4.0  190P/Mueller                                             MPC182889
0191P         2028 02 29.8295  2.239459  0.384974  284.2651   98.1777    8.8396  20251024  13.0  4.0  191P/McNaught                                            MPEC 2024-TD8
0192P         2024 05 24.4581  1.461794  0.773311  313.0256   51.5493   24.5769  20251024  15.0  4.0  192P/Shoemaker-Levy                                      MPC182889
0193P         2028 06  1.4503  2.174879  0.392487    8.1029  335.1833   10.6779  20251024  14.0  4.0  193P/LINEAR-NEAT                                         MPEC 2024-R10
0194P         2024 02  4.3683  1.800237  0.563421  128.6412  349.5011   11.8031  20251024  16.0  4.0  194P/LINEAR                                              MPEC 2024-GJ3
0195P         2025 08  5.9465  4.440582  0.310597  250.6462  243.0908   36.4151  20251024   8.5  4.0  195P/Hill                                                MPC188418
0196P         2022 10 29.0338  2.179926  0.427357   12.1467   24.1255   19.2920  20251024  13.5  4.0  196P/Tichy                                               MPEC 2024-GJ3
0197P         2027 11 21.7724  1.112572  0.617743  189.9858   66.1408   25.2205  20251024  16.5  2.0  197P/LINEAR                                              MPEC 2023-UR6
0198P         2025 10  7.1090  1.994779  0.444892   69.0546  358.4644    1.3399  20251024  12.5  4.0  198P/ODAS                                                MPEC 2024-VJ2
0199P         2023 08  7.1837  2.911032  0.504246  191.7496   92.3430   24.9395  20251024  10.0  4.0  199P/Shoemaker                                           MPEC 2024-Q20
0200P         2030 08  6.7503  3.314886  0.330905  134.3738  234.8139   12.0941  20251024   9.0  4.0  200P/Larsen                                              MPEC 2022-C56
0201P         2027 07 20.2186  1.216139  0.637461   19.8149   41.5178    5.7362  20251024  14.0  4.0  201P/LONEOS                                              MPC 93588
0202P         2024 05 17.3476  3.070327  0.251011  274.5154  177.3003    2.1418  20251024  13.5  4.0  202P/Scotti                                              MPC182889
0203P         2030 04  9.2041  3.191383  0.316381  154.9610  290.2201    2.9762  20251024  14.5  2.0  203P/Korlevic                                            MPEC 2025-A40
0204P         2022 11 17.4313  1.834037  0.488313  356.7403  108.4722    6.5983  20251024  14.0  4.0  204P/LINEAR-NEAT                                         MPEC 2024-JU4
0205P         2028 09 13.4390  1.533748  0.567142  154.1416  179.6245   15.2997  20251024  13.0  4.0  205P/Giacobini                                           MPEC 2023_O39
0206P         2027 09 13.0888  1.567546  0.551043  189.5815  202.3354   33.6124  20251024  19.0  4.0  206P/Barnard-Boattini                                    MPC 75725
0207P         2024 01 31.9143  0.938454  0.758545  273.0476  198.1248   10.1975  20251024  16.0  4.0  207P/NEAT                                                MPEC 2024-NE4
0208P         2024 08 24.7051  2.530737  0.374496  310.9332   36.3021    4.4081  20251024  12.5  4.0  208P/McMillan                                            MPC182889
0209P         2024 07 14.4976  0.963892  0.674080  152.4756   62.7594   21.2839  20251024  17.0  2.0  209P/LINEAR                                              MPEC 2024-TD8
0210P         2025 11 22.7269  0.524416  0.834071  345.9497   93.7971   10.2873  20251024  13.5  4.0  210P/Christensen                                         MPC188418
0211P         2022 10  5.3868  2.326019  0.344562    4.3631  117.1001   18.9261  20251024  12.5  4.0  211P/Hill                                                MPEC 2024-JU4
0212P         2024 04 25.1817  1.613133  0.586771   14.0747   97.9710   22.1495  20251024  17.0  2.0  212P/NEAT                                                MPEC 2024-GJ3
0213P         2023 11 15.7729  1.978654  0.411300    7.0195  310.6273   10.5131  20251024  10.5  4.0  213P/VanNess                                             MPC184418
0213P      b  2023 11 15.6439  1.978972  0.411179    7.0373  310.6240   10.5124  20251024  17.0  4.0  213P-B/Van Ness                                          MPEC 2025-GB9
0213P      c  2023 11 13.7438  1.978938  0.410535  312.8436    4.6176   10.3592  20251024  17.5  4.0  213P-C/Van Ness                                          MPC 76570
0214P         2022 09 26.5768  1.857106  0.486436  190.1188  348.2117   15.1949  20251024  13.0  4.0  214P/LINEAR                                              MPC 92986
0215P         2028 11 23.9695  3.621603  0.164858  262.1893   56.6801   10.5761  20251024  11.0  4.0  215P/NEAT                                                MPC184418
0216P         2024 01  7.0657  2.126765  0.449096  151.7828  359.7720    9.0619  20251024  13.0  4.0  216P/LINEAR                                              MPEC 2024-N80
0217P         2025 05 24.9584  1.226363  0.689238  247.0445  125.3688   12.8662  20251024  12.0  4.0  217P/LINEAR                                              MPC188418
0218P         2026 03  3.8991  1.129533  0.630844   61.4654  174.6574    2.7272  20251024  16.0  4.0  218P/LINEAR                                              MPEC 2022-K19
0219P         2024 02 16.2874  2.353932  0.357005  108.3067  230.6726   11.4745  20251024  11.0  4.0  219P/LINEAR                                              MPC182889
0220P         2026 06 14.1404  1.559157  0.500363  180.5752  150.0869    8.1206  20251024  15.0  4.0  220P/McNaught                                            MPEC 2024-A43
0221P         2028 03 31.7087  1.609235  0.523981   44.4373  224.0651   10.5057  20251024  14.5  4.0  221P/LINEAR                                              MPEC 2022-UY9
0222P         2024 05 12.8692  0.825674  0.714864  346.2695    6.7455    5.0984  20251024  20.0  4.0  222P/LINEAR                                              MPC 92277
0223P         2027 07 24.8431  2.427714  0.416162   37.9907  346.6958   27.0060  20251024  12.0  4.0  223P/Skiff                                               MPEC 2023-A50
0224P         2022 09 30.1182  2.049784  0.405437   16.8275   40.0399   13.2996  20251024  15.5  4.0  224P/LINEAR-NEAT                                         MPEC 2024-L77
0225P         2023 08  7.7467  1.320258  0.638045    3.9062   14.2134   21.3586  20251024  18.0  4.0  225P/LINEAR                                              MPEC 2024-F91
0226P         2023 12 27.0012  1.774479  0.528756  341.0384   54.0159   44.0438  20251024  12.5  4.0  226P/Pigott-LINEAR-Kowalski                              MPEC 2024-MB8
0227P         2024 03  8.3845  1.623444  0.527771  105.6044   36.7947    7.5068  20251024  16.5  2.0  227P/Catalina-LINEAR                                     MPEC 2024-R10
0228P         2028 09  5.1326  3.422346  0.177590  114.8465   30.9512    7.9166  20251024  14.5  2.0  228P/LINEAR                                              MPEC 2022-HC2
0229P         2025 03  5.9303  2.440595  0.378290  224.2714  157.8664   26.0968  20251024  13.0  4.0  229P/Gibbs                                               MPC186636
